start=new Date('2023-04-12T00:00:00.000Z').valueOf();
sats=[{"CLASSIFICATION_TYPE":"U","MEAN_MOTION":"15.08835309","FILE":"3885821","TLE_LINE1":"1 53997U 22125AK  23101.56294800 -.00001320  00000-0 -64865-4 0  9997","SITE":"AFWTR","LAUNCH_DATE":"2022-10-05","DECAY_DATE":null,"ECCENTRICITY":"0.00009300","PERIOD":"95.438","OBJECT_NAME":"STARLINK-5130","REF_FRAME":"TEME","COUNTRY_CODE":"US","TLE_LINE2":"2 53997  53.2162 296.9094 0000930  86.3733 273.7366 15.08835309 29170","PERIAPSIS":"539.116","INCLINATION":"53.2162","ELEMENT_SET_NO":"999","RCS_SIZE":"LARGE","TIME_SYSTEM":"UTC","RA_OF_ASC_NODE":"296.9094","MEAN_ANOMALY":"273.7366","EPOCH":"2023-04-11T13:30:38.707200","CENTER_NAME":"EARTH","BSTAR":"-0.00006486500000","OBJECT_ID":"2022-125AK","ARG_OF_PERICENTER":"86.3733","GP_ID":"229920550","REV_AT_EPOCH":"2917","NORAD_CAT_ID":"53997","EPHEMERIS_TYPE":"0","MEAN_ELEMENT_THEORY":"SGP4","APOAPSIS":"540.403","OBJECT_TYPE":"PAYLOAD","MEAN_MOTION_DDOT":"0.0000000000000","SEMIMAJOR_AXIS":"6917.895","MEAN_MOTION_DOT":"-0.00001320"},{"OBJECT_NAME":"STARLINK-5128","REF_FRAME":"TEME","PERIAPSIS":"539.013","TLE_LINE2":"2 53998  53.2160 305.1481 0001078  87.0273 273.0843 15.08835516 29086","COUNTRY_CODE":"US","RCS_SIZE":"LARGE","INCLINATION":"53.2160","ELEMENT_SET_NO":"999","MEAN_ANOMALY":"273.0843","TIME_SYSTEM":"UTC","RA_OF_ASC_NODE":"305.1481","EPOCH":"2023-04-11T20:29:15.148320","FILE":"3885821","MEAN_MOTION":"15.08835516","TLE_LINE1":"1 53998U 22125AL  23101.85364755 -.00000687  00000-0 -25114-4 0  9996","CLASSIFICATION_TYPE":"U","SITE":"AFWTR","LAUNCH_DATE":"2022-10-05","DECAY_DATE":null,"ECCENTRICITY":"0.00010780","PERIOD":"95.438","APOAPSIS":"540.505","OBJECT_TYPE":"PAYLOAD","MEAN_MOTION_DDOT":"0.0000000000000","SEMIMAJOR_AXIS":"6917.894","MEAN_MOTION_DOT":"-0.00000687","BSTAR":"-0.00002511400000","CENTER_NAME":"EARTH","GP_ID":"229920555","ARG_OF_PERICENTER":"87.0273","OBJECT_ID":"2022-125AL","REV_AT_EPOCH":"2908","EPHEMERIS_TYPE":"0","MEAN_ELEMENT_THEORY":"SGP4","NORAD_CAT_ID":"53998"},{"NORAD_CAT_ID":"53999","MEAN_ELEMENT_THEORY":"SGP4","EPHEMERIS_TYPE":"0","REV_AT_EPOCH":"2901","ARG_OF_PERICENTER":"88.1688","OBJECT_ID":"2022-125AM","GP_ID":"229948187","CENTER_NAME":"EARTH","BSTAR":"0.00057838000000","MEAN_MOTION_DOT":"0.00008928","SEMIMAJOR_AXIS":"6917.890","MEAN_MOTION_DDOT":"0.0000000000000","OBJECT_TYPE":"PAYLOAD","APOAPSIS":"540.444","PERIOD":"95.438","ECCENTRICITY":"0.00009960","DECAY_DATE":null,"LAUNCH_DATE":"2022-10-05","SITE":"AFWTR","CLASSIFICATION_TYPE":"U","TLE_LINE1":"1 53999U 22125AM  23101.86742976  .00008928  00000-0  57838-3 0  9994","FILE":"3885919","MEAN_MOTION":"15.08836831","EPOCH":"2023-04-11T20:49:05.931264","TIME_SYSTEM":"UTC","RA_OF_ASC_NODE":"305.2310","MEAN_ANOMALY":"271.9419","ELEMENT_SET_NO":"999","INCLINATION":"53.2160","RCS_SIZE":"LARGE","COUNTRY_CODE":"US","TLE_LINE2":"2 53999  53.2160 305.2310 0000996  88.1688 271.9419 15.08836831 29019","PERIAPSIS":"539.066","REF_FRAME":"TEME","OBJECT_NAME":"STARLINK-5079"},{"SEMIMAJOR_AXIS":"6917.865","MEAN_MOTION_DOT":"0.00007355","OBJECT_TYPE":"PAYLOAD","APOAPSIS":"540.519","MEAN_MOTION_DDOT":"0.0000000000000","REV_AT_EPOCH":"2911","NORAD_CAT_ID":"54000","MEAN_ELEMENT_THEORY":"SGP4","EPHEMERIS_TYPE":"0","CENTER_NAME":"EARTH","BSTAR":"0.00047965000000","OBJECT_ID":"2022-125AN","ARG_OF_PERICENTER":"89.7749","GP_ID":"229948439","ELEMENT_SET_NO":"999","INCLINATION":"53.2159","RCS_SIZE":"LARGE","EPOCH":"2023-04-11T15:00:43.149888","RA_OF_ASC_NODE":"296.5896","MEAN_ANOMALY":"270.3374","TIME_SYSTEM":"UTC","REF_FRAME":"TEME","OBJECT_NAME":"STARLINK-5088","TLE_LINE2":"2 54000  53.2159 296.5896 0001141  89.7749 270.3374 15.08845049 29115","COUNTRY_CODE":"US","PERIAPSIS":"538.941","ECCENTRICITY":"0.00011410","DECAY_DATE":null,"LAUNCH_DATE":"2022-10-05","PERIOD":"95.437","CLASSIFICATION_TYPE":"U","TLE_LINE1":"1 54000U 22125AN  23101.62549942  .00007355  00000-0  47965-3 0  9993","FILE":"3885919","MEAN_MOTION":"15.08845049","SITE":"AFWTR"},{"INCLINATION":"53.2150","ELEMENT_SET_NO":"999","RCS_SIZE":"LARGE","TIME_SYSTEM":"UTC","RA_OF_ASC_NODE":"305.1411","MEAN_ANOMALY":"276.2100","EPOCH":"2023-04-11T20:27:52.461792","OBJECT_NAME":"STARLINK-5105","REF_FRAME":"TEME","TLE_LINE2":"2 54001  53.2150 305.1411 0001105  83.9018 276.2100 15.08839635 29062","COUNTRY_CODE":"US","PERIAPSIS":"538.982","LAUNCH_DATE":"2022-10-05","DECAY_DATE":null,"ECCENTRICITY":"0.00011050","PERIOD":"95.438","CLASSIFICATION_TYPE":"U","FILE":"3885919","MEAN_MOTION":"15.08839635","TLE_LINE1":"1 54001U 22125AP  23101.85269053 -.00000009  00000-0  17532-4 0  9999","SITE":"AFWTR","SEMIMAJOR_AXIS":"6917.882","MEAN_MOTION_DOT":"-0.00000009","APOAPSIS":"540.511","OBJECT_TYPE":"PAYLOAD","MEAN_MOTION_DDOT":"0.0000000000000","REV_AT_EPOCH":"2906","NORAD_CAT_ID":"54001","EPHEMERIS_TYPE":"0","MEAN_ELEMENT_THEORY":"SGP4","CENTER_NAME":"EARTH","BSTAR":"0.00001753200000","ARG_OF_PERICENTER":"83.9018","OBJECT_ID":"2022-125AP","GP_ID":"229948673"},{"PERIAPSIS":"538.965","TLE_LINE2":"2 54002  53.2143 296.0395 0001146  79.5864 280.5258 15.08836098 29128","COUNTRY_CODE":"US","OBJECT_NAME":"STARLINK-5109","REF_FRAME":"TEME","MEAN_ANOMALY":"280.5258","TIME_SYSTEM":"UTC","RA_OF_ASC_NODE":"296.0395","EPOCH":"2023-04-11T15:32:26.171232","RCS_SIZE":"LARGE","INCLINATION":"53.2143","ELEMENT_SET_NO":"999","SITE":"AFWTR","MEAN_MOTION":"15.08836098","FILE":"3885919","TLE_LINE1":"1 54002U 22125AQ  23101.64752513  .00006210  00000-0  40795-3 0  9990","CLASSIFICATION_TYPE":"U","PERIOD":"95.438","DECAY_DATE":null,"LAUNCH_DATE":"2022-10-05","ECCENTRICITY":"0.00011460","MEAN_MOTION_DDOT":"0.0000000000000","APOAPSIS":"540.550","OBJECT_TYPE":"PAYLOAD","MEAN_MOTION_DOT":"0.00006210","SEMIMAJOR_AXIS":"6917.892","GP_ID":"229947438","ARG_OF_PERICENTER":"79.5864","OBJECT_ID":"2022-125AQ","BSTAR":"0.00040795000000","CENTER_NAME":"EARTH","EPHEMERIS_TYPE":"0","MEAN_ELEMENT_THEORY":"SGP4","NORAD_CAT_ID":"54002","REV_AT_EPOCH":"2912"},{"MEAN_MOTION_DOT":"0.00000274","SEMIMAJOR_AXIS":"6917.886","MEAN_MOTION_DDOT":"0.0000000000000","OBJECT_TYPE":"PAYLOAD","APOAPSIS":"540.692","NORAD_CAT_ID":"54003","MEAN_ELEMENT_THEORY":"SGP4","EPHEMERIS_TYPE":"0","REV_AT_EPOCH":"2906","OBJECT_ID":"2022-125AR","ARG_OF_PERICENTER":"87.2342","GP_ID":"229921075","CENTER_NAME":"EARTH","BSTAR":"0.00003531500000","EPOCH":"2023-04-11T20:33:10.431072","TIME_SYSTEM":"UTC","RA_OF_ASC_NODE":"305.1625","MEAN_ANOMALY":"272.8806","ELEMENT_SET_NO":"999","INCLINATION":"53.2157","RCS_SIZE":"LARGE","COUNTRY_CODE":"US","TLE_LINE2":"2 54003  53.2157 305.1625 0001361  87.2342 272.8806 15.08838184 29062","PERIAPSIS":"538.809","REF_FRAME":"TEME","OBJECT_NAME":"STARLINK-5114","PERIOD":"95.438","ECCENTRICITY":"0.00013610","LAUNCH_DATE":"2022-10-05","DECAY_DATE":null,"SITE":"AFWTR","CLASSIFICATION_TYPE":"U","TLE_LINE1":"1 54003U 22125AR  23101.85637073  .00000274  00000-0  35315-4 0  9994","FILE":"3885823","MEAN_MOTION":"15.08838184"},{"CENTER_NAME":"EARTH","BSTAR":"0.00004544400000","ARG_OF_PERICENTER":"70.7388","OBJECT_ID":"2022-125AS","GP_ID":"229919330","REV_AT_EPOCH":"2888","NORAD_CAT_ID":"54004","EPHEMERIS_TYPE":"0","MEAN_ELEMENT_THEORY":"SGP4","OBJECT_TYPE":"PAYLOAD","APOAPSIS":"540.495","MEAN_MOTION_DDOT":"0.0000000000000","SEMIMAJOR_AXIS":"6917.852","MEAN_MOTION_DOT":"0.00000436","CLASSIFICATION_TYPE":"U","TLE_LINE1":"1 54004U 22125AS  23100.98419673  .00000436  00000-0  45444-4 0  9996","MEAN_MOTION":"15.08849137","FILE":"3885783","SITE":"AFWTR","ECCENTRICITY":"0.00011240","LAUNCH_DATE":"2022-10-05","DECAY_DATE":null,"PERIOD":"95.437","REF_FRAME":"TEME","OBJECT_NAME":"STARLINK-5129","TLE_LINE2":"2 54004  53.2168 308.9628 0001124  70.7388 289.3726 15.08849137 28886","COUNTRY_CODE":"US","PERIAPSIS":"538.940","ELEMENT_SET_NO":"999","INCLINATION":"53.2168","RCS_SIZE":"LARGE","EPOCH":"2023-04-10T23:37:14.597472","MEAN_ANOMALY":"289.3726","TIME_SYSTEM":"UTC","RA_OF_ASC_NODE":"308.9628"},{"CENTER_NAME":"EARTH","BSTAR":"0.00017585000000","OBJECT_ID":"2022-125AT","ARG_OF_PERICENTER":"99.1473","GP_ID":"229949173","REV_AT_EPOCH":"2906","NORAD_CAT_ID":"54005","MEAN_ELEMENT_THEORY":"SGP4","EPHEMERIS_TYPE":"0","APOAPSIS":"540.706","OBJECT_TYPE":"PAYLOAD","MEAN_MOTION_DDOT":"0.0000000000000","SEMIMAJOR_AXIS":"6917.880","MEAN_MOTION_DOT":"0.00002512","CLASSIFICATION_TYPE":"U","FILE":"3885919","MEAN_MOTION":"15.08839996","TLE_LINE1":"1 54005U 22125AT  23101.84900402  .00002512  00000-0  17585-3 0  9999","SITE":"AFWTR","DECAY_DATE":null,"LAUNCH_DATE":"2022-10-05","ECCENTRICITY":"0.00013880","PERIOD":"95.438","OBJECT_NAME":"STARLINK-5135","REF_FRAME":"TEME","TLE_LINE2":"2 54005  53.2156 305.1198 0001388  99.1473 260.9677 15.08839996 29060","COUNTRY_CODE":"US","PERIAPSIS":"538.785","INCLINATION":"53.2156","ELEMENT_SET_NO":"999","RCS_SIZE":"LARGE","RA_OF_ASC_NODE":"305.1198","TIME_SYSTEM":"UTC","MEAN_ANOMALY":"260.9677","EPOCH":"2023-04-11T20:22:33.947328"},{"REV_AT_EPOCH":"2887","EPHEMERIS_TYPE":"0","MEAN_ELEMENT_THEORY":"SGP4","NORAD_CAT_ID":"54006","BSTAR":"0.00022866000000","CENTER_NAME":"EARTH","GP_ID":"229918329","ARG_OF_PERICENTER":"89.8883","OBJECT_ID":"2022-125AU","SEMIMAJOR_AXIS":"6917.861","MEAN_MOTION_DOT":"0.00003354","APOAPSIS":"540.605","OBJECT_TYPE":"PAYLOAD","MEAN_MOTION_DDOT":"0.0000000000000","DECAY_DATE":null,"LAUNCH_DATE":"2022-10-05","ECCENTRICITY":"0.00012700","PERIOD":"95.437","MEAN_MOTION":"15.08846209","FILE":"3885783","TLE_LINE1":"1 54006U 22125AU  23100.97314380  .00003354  00000-0  22866-3 0  9990","CLASSIFICATION_TYPE":"U","SITE":"AFWTR","RCS_SIZE":"LARGE","INCLINATION":"53.2152","ELEMENT_SET_NO":"999","MEAN_ANOMALY":"270.2255","TIME_SYSTEM":"UTC","RA_OF_ASC_NODE":"308.9022","EPOCH":"2023-04-10T23:21:19.624320","OBJECT_NAME":"STARLINK-5096","REF_FRAME":"TEME","PERIAPSIS":"538.848","TLE_LINE2":"2 54006  53.2152 308.9022 0001270  89.8883 270.2255 15.08846209 28874","COUNTRY_CODE":"US"}];
